{"type": "FeatureCollection", "features": [{"type": "Feature", "properties": {"name": "Candidate DEM-derived catchment - DEM outlet (candidate, unverified)", "boundaryType": "contributing-catchment", "derivation": "DEM-derived (Copernicus GLO-30; Priority-Flood + epsilon; D8); polygonised along DEM cell edges, not smoothed", "areaKm2": 9.6504, "outlet": [124.9027778, 11.8125], "status": "not-validated"}, "geometry": {"type": "Polygon", "coordinates": [[[124.91236111, 11.83152778], [124.91180556, 11.83152778], [124.91180556, 11.83125], [124.91152778, 11.83125], [124.91152778, 11.83097222], [124.91125, 11.83097222], [124.91125, 11.83069444], [124.91097222, 11.83069444], [124.91097222, 11.83041667], [124.91069444, 11.83041667], [124.91069444, 11.83013889], [124.90930556, 11.83013889], [124.90930556, 11.82986111], [124.90875, 11.82986111], [124.90875, 11.82958333], [124.90736111, 11.82958333], [124.90736111, 11.82986111], [124.90597222, 11.82986111], [124.90597222, 11.82958333], [124.90541667, 11.82958333], [124.90541667, 11.82902778], [124.90513889, 11.82902778], [124.90513889, 11.82875], [124.90458333, 11.82875], [124.90458333, 11.82847222], [124.90430556, 11.82847222], [124.90430556, 11.82819444], [124.90347222, 11.82819444], [124.90347222, 11.82791667], [124.90263889, 11.82791667], [124.90263889, 11.82763889], [124.90208333, 11.82763889], [124.90208333, 11.82736111], [124.90180556, 11.82736111], [124.90180556, 11.82708333], [124.90152778, 11.82708333], [124.90152778, 11.82652778], [124.90125, 11.82652778], [124.90125, 11.82625], [124.89902778, 11.82625], [124.89902778, 11.82597222], [124.89875, 11.82597222], [124.89875, 11.82541667], [124.89847222, 11.82541667], [124.89847222, 11.82430556], [124.89819444, 11.82430556], [124.89819444, 11.82375], [124.89791667, 11.82375], [124.89791667, 11.82319444], [124.89736111, 11.82319444], [124.89736111, 11.82291667], [124.89680556, 11.82291667], [124.89680556, 11.82263889], [124.89652778, 11.82263889], [124.89652778, 11.82236111], [124.89625, 11.82236111], [124.89625, 11.82208333], [124.89597222, 11.82208333], [124.89597222, 11.82152778], [124.89625, 11.82152778], [124.89625, 11.82069444], [124.89652778, 11.82069444], [124.89652778, 11.82041667], [124.89680556, 11.82041667], [124.89680556, 11.82013889], [124.89736111, 11.82013889], [124.89736111, 11.81986111], [124.89763889, 11.81986111], [124.89763889, 11.81958333], [124.89791667, 11.81958333], [124.89791667, 11.81930556], [124.89819444, 11.81930556], [124.89819444, 11.81902778], [124.89847222, 11.81902778], [124.89847222, 11.81847222], [124.89902778, 11.81847222], [124.89902778, 11.81819444], [124.89930556, 11.81819444], [124.89930556, 11.81791667], [124.89986111, 11.81791667], [124.89986111, 11.81763889], [124.90041667, 11.81763889], [124.90041667, 11.81736111], [124.90069444, 11.81736111], [124.90069444, 11.81708333], [124.90125, 11.81708333], [124.90125, 11.81680556], [124.90152778, 11.81680556], [124.90152778, 11.81652778], [124.90180556, 11.81652778], [124.90180556, 11.81625], [124.90236111, 11.81625], [124.90236111, 11.81597222], [124.90263889, 11.81597222], [124.90263889, 11.81569444], [124.90291667, 11.81569444], [124.90291667, 11.81319444], [124.90263889, 11.81319444], [124.90263889, 11.81236111], [124.90291667, 11.81236111], [124.90291667, 11.81208333], [124.90319444, 11.81208333], [124.90319444, 11.81152778], [124.90347222, 11.81152778], [124.90347222, 11.81125], [124.90375, 11.81125], [124.90375, 11.81097222], [124.90402778, 11.81097222], [124.90402778, 11.81069444], [124.90430556, 11.81069444], [124.90430556, 11.81041667], [124.90486111, 11.81041667], [124.90486111, 11.81013889], [124.90513889, 11.81013889], [124.90513889, 11.80986111], [124.90541667, 11.80986111], [124.90541667, 11.80958333], [124.90513889, 11.80958333], [124.90513889, 11.80930556], [124.90486111, 11.80930556], [124.90486111, 11.80875], [124.90458333, 11.80875], [124.90458333, 11.80847222], [124.90430556, 11.80847222], [124.90430556, 11.80736111], [124.90402778, 11.80736111], [124.90402778, 11.80680556], [124.90430556, 11.80680556], [124.90430556, 11.80652778], [124.90486111, 11.80652778], [124.90486111, 11.80625], [124.90513889, 11.80625], [124.90513889, 11.80597222], [124.90541667, 11.80597222], [124.90541667, 11.80541667], [124.90597222, 11.80541667], [124.90597222, 11.80569444], [124.90652778, 11.80569444], [124.90652778, 11.80597222], [124.90819444, 11.80597222], [124.90819444, 11.80625], [124.90875, 11.80625], [124.90875, 11.80652778], [124.90902778, 11.80652778], [124.90902778, 11.80680556], [124.90930556, 11.80680556], [124.90930556, 11.80819444], [124.90958333, 11.80819444], [124.90958333, 11.80847222], [124.90986111, 11.80847222], [124.90986111, 11.80902778], [124.91013889, 11.80902778], [124.91013889, 11.80986111], [124.91041667, 11.80986111], [124.91041667, 11.81041667], [124.91069444, 11.81041667], [124.91069444, 11.81069444], [124.91097222, 11.81069444], [124.91097222, 11.81097222], [124.91125, 11.81097222], [124.91125, 11.81125], [124.91152778, 11.81125], [124.91152778, 11.81152778], [124.91208333, 11.81152778], [124.91208333, 11.81180556], [124.91263889, 11.81180556], [124.91263889, 11.81152778], [124.91430556, 11.81152778], [124.91430556, 11.81125], [124.91486111, 11.81125], [124.91486111, 11.81097222], [124.91541667, 11.81097222], [124.91541667, 11.81069444], [124.91569444, 11.81069444], [124.91569444, 11.81097222], [124.92069444, 11.81097222], [124.92069444, 11.81069444], [124.92097222, 11.81069444], [124.92097222, 11.81041667], [124.92125, 11.81041667], [124.92125, 11.81013889], [124.92263889, 11.81013889], [124.92263889, 11.80986111], [124.92319444, 11.80986111], [124.92319444, 11.80958333], [124.92375, 11.80958333], [124.92375, 11.80930556], [124.92402778, 11.80930556], [124.92402778, 11.80902778], [124.92430556, 11.80902778], [124.92430556, 11.80819444], [124.92458333, 11.80819444], [124.92458333, 11.80847222], [124.92652778, 11.80847222], [124.92652778, 11.80875], [124.92680556, 11.80875], [124.92680556, 11.80902778], [124.92708333, 11.80902778], [124.92708333, 11.80930556], [124.92763889, 11.80930556], [124.92763889, 11.80958333], [124.92819444, 11.80958333], [124.92819444, 11.81013889], [124.92847222, 11.81013889], [124.92847222, 11.81041667], [124.92875, 11.81041667], [124.92875, 11.81013889], [124.92958333, 11.81013889], [124.92958333, 11.81041667], [124.92986111, 11.81041667], [124.92986111, 11.81069444], [124.93069444, 11.81069444], [124.93069444, 11.80986111], [124.93097222, 11.80986111], [124.93097222, 11.80958333], [124.93069444, 11.80958333], [124.93069444, 11.80930556], [124.93097222, 11.80930556], [124.93097222, 11.80902778], [124.93291667, 11.80902778], [124.93291667, 11.80875], [124.93319444, 11.80875], [124.93319444, 11.80819444], [124.93291667, 11.80819444], [124.93291667, 11.80763889], [124.93319444, 11.80763889], [124.93319444, 11.80708333], [124.93402778, 11.80708333], [124.93402778, 11.80680556], [124.93569444, 11.80680556], [124.93569444, 11.80763889], [124.93625, 11.80763889], [124.93625, 11.80736111], [124.93652778, 11.80736111], [124.93652778, 11.80763889], [124.93680556, 11.80763889], [124.93680556, 11.80791667], [124.93708333, 11.80791667], [124.93708333, 11.80819444], [124.93736111, 11.80819444], [124.93736111, 11.80847222], [124.93791667, 11.80847222], [124.93791667, 11.80930556], [124.93819444, 11.80930556], [124.93819444, 11.80986111], [124.93875, 11.80986111], [124.93875, 11.81013889], [124.93902778, 11.81013889], [124.93902778, 11.81097222], [124.93930556, 11.81097222], [124.93930556, 11.81152778], [124.93958333, 11.81152778], [124.93958333, 11.81180556], [124.93986111, 11.81180556], [124.93986111, 11.81208333], [124.94125, 11.81208333], [124.94125, 11.81263889], [124.94152778, 11.81263889], [124.94152778, 11.81319444], [124.94180556, 11.81319444], [124.94180556, 11.81347222], [124.94208333, 11.81347222], [124.94208333, 11.81430556], [124.94236111, 11.81430556], [124.94236111, 11.81513889], [124.94208333, 11.81513889], [124.94208333, 11.81597222], [124.94236111, 11.81597222], [124.94236111, 11.81625], [124.94291667, 11.81625], [124.94291667, 11.81652778], [124.94319444, 11.81652778], [124.94319444, 11.81708333], [124.94291667, 11.81708333], [124.94291667, 11.81791667], [124.94263889, 11.81791667], [124.94263889, 11.81902778], [124.94236111, 11.81902778], [124.94236111, 11.81958333], [124.94263889, 11.81958333], [124.94263889, 11.81986111], [124.94291667, 11.81986111], [124.94291667, 11.82041667], [124.94319444, 11.82041667], [124.94319444, 11.82125], [124.94125, 11.82125], [124.94125, 11.82152778], [124.94097222, 11.82152778], [124.94097222, 11.82180556], [124.93930556, 11.82180556], [124.93930556, 11.82208333], [124.93902778, 11.82208333], [124.93902778, 11.82236111], [124.93875, 11.82236111], [124.93875, 11.82319444], [124.93902778, 11.82319444], [124.93902778, 11.82375], [124.93930556, 11.82375], [124.93930556, 11.82402778], [124.93902778, 11.82402778], [124.93902778, 11.82430556], [124.93875, 11.82430556], [124.93875, 11.82486111], [124.93847222, 11.82486111], [124.93847222, 11.82513889], [124.93930556, 11.82513889], [124.93930556, 11.82541667], [124.93986111, 11.82541667], [124.93986111, 11.82569444], [124.94013889, 11.82569444], [124.94013889, 11.82597222], [124.94041667, 11.82597222], [124.94041667, 11.82625], [124.94069444, 11.82625], [124.94069444, 11.82652778], [124.94041667, 11.82652778], [124.94041667, 11.82708333], [124.94013889, 11.82708333], [124.94013889, 11.82736111], [124.93986111, 11.82736111], [124.93986111, 11.82763889], [124.93875, 11.82763889], [124.93875, 11.82847222], [124.93847222, 11.82847222], [124.93847222, 11.82902778], [124.93819444, 11.82902778], [124.93819444, 11.82930556], [124.93791667, 11.82930556], [124.93791667, 11.82958333], [124.93736111, 11.82958333], [124.93736111, 11.82986111], [124.93625, 11.82986111], [124.93625, 11.83013889], [124.93569444, 11.83013889], [124.93569444, 11.83041667], [124.93513889, 11.83041667], [124.93513889, 11.83069444], [124.93375, 11.83069444], [124.93375, 11.83041667], [124.93291667, 11.83041667], [124.93291667, 11.83069444], [124.93208333, 11.83069444], [124.93208333, 11.83097222], [124.93125, 11.83097222], [124.93125, 11.83069444], [124.93097222, 11.83069444], [124.93097222, 11.83013889], [124.93069444, 11.83013889], [124.93069444, 11.82986111], [124.93041667, 11.82986111], [124.93041667, 11.82958333], [124.93013889, 11.82958333], [124.93013889, 11.82986111], [124.92958333, 11.82986111], [124.92958333, 11.83013889], [124.92902778, 11.83013889], [124.92902778, 11.83041667], [124.92875, 11.83041667], [124.92875, 11.83013889], [124.92791667, 11.83013889], [124.92791667, 11.82986111], [124.92736111, 11.82986111], [124.92736111, 11.82930556], [124.92708333, 11.82930556], [124.92708333, 11.82875], [124.92680556, 11.82875], [124.92680556, 11.82847222], [124.92625, 11.82847222], [124.92625, 11.82819444], [124.92597222, 11.82819444], [124.92597222, 11.82791667], [124.92569444, 11.82791667], [124.92569444, 11.82763889], [124.92541667, 11.82763889], [124.92541667, 11.82736111], [124.92486111, 11.82736111], [124.92486111, 11.82708333], [124.92402778, 11.82708333], [124.92402778, 11.82680556], [124.92347222, 11.82680556], [124.92347222, 11.82652778], [124.92319444, 11.82652778], [124.92319444, 11.82625], [124.92263889, 11.82625], [124.92263889, 11.82597222], [124.92208333, 11.82597222], [124.92208333, 11.82625], [124.92180556, 11.82625], [124.92180556, 11.82652778], [124.91958333, 11.82652778], [124.91958333, 11.82680556], [124.91930556, 11.82680556], [124.91930556, 11.82708333], [124.91902778, 11.82708333], [124.91902778, 11.82736111], [124.91819444, 11.82736111], [124.91819444, 11.82763889], [124.91763889, 11.82763889], [124.91763889, 11.82791667], [124.91736111, 11.82791667], [124.91736111, 11.82763889], [124.91680556, 11.82763889], [124.91680556, 11.82791667], [124.91597222, 11.82791667], [124.91597222, 11.82819444], [124.91541667, 11.82819444], [124.91541667, 11.82875], [124.91486111, 11.82875], [124.91486111, 11.82958333], [124.91458333, 11.82958333], [124.91458333, 11.83097222], [124.91430556, 11.83097222], [124.91430556, 11.83125], [124.91375, 11.83125], [124.91375, 11.83152778], [124.91347222, 11.83152778], [124.91347222, 11.83180556], [124.91236111, 11.83180556], [124.91236111, 11.83152778]]]}}]}