{"type": "FeatureCollection", "features": [{"type": "Feature", "properties": {"role": "published", "name": "Kulador Treatment Plant (published coordinate)", "source": "https://catbaloganwd.gov.ph/Kulador.html"}, "geometry": {"type": "Point", "coordinates": [124.9028611, 11.8123333]}}, {"type": "Feature", "properties": {"role": "pour-point", "name": "DEM outlet (candidate, unverified)", "label": "DEM outlet (candidate, unverified)", "note": "DEM channel cell nearest the published Kulador Treatment Plant coordinate. The actual intake / spillway location is not verified.", "snapDistanceM": 20.6, "accumulationKm2": 9.6504}, "geometry": {"type": "Point", "coordinates": [124.9027778, 11.8125]}}]}