{
 "type": "FeatureCollection",
 "features": [
  {
   "type": "Feature",
   "properties": {
    "name": "Catbalogan Watershed Forest Reserve",
    "legalBasis": "Proclamation No. 413, s. 1994",
    "derivation": "Plotted from the legal technical description (tie point + bearing/distance traverse); not digitised, simplified or edited",
    "corners": 53,
    "tiePoint": "latitude 11º 4831.6, longitude 124º 5329.8 (datum not stated in source; used as published)",
    "statedAreaHa": 804.9,
    "traverseAreaHa": 804.9,
    "ellipsoidalAreaHa": 804.93,
    "misclosureM": 1.6,
    "closurePrecision": "1:7585"
   },
   "geometry": {
    "type": "Polygon",
    "coordinates": [
     [
      [
       124.89161111,
       11.80877778
      ],
      [
       124.89188211,
       11.80855245
      ],
      [
       124.89207332,
       11.80748414
      ],
      [
       124.89269489,
       11.80502816
      ],
      [
       124.89363075,
       11.80540067
      ],
      [
       124.89439646,
       11.80570544
      ],
      [
       124.89462761,
       11.80589106
      ],
      [
       124.897426,
       11.80572809
      ],
      [
       124.89738037,
       11.80372174
      ],
      [
       124.89857362,
       11.80162407
      ],
      [
       124.89976795,
       11.80297288
      ],
      [
       124.90087936,
       11.80356121
      ],
      [
       124.90330069,
       11.80363341
      ],
      [
       124.90496091,
       11.80426618
      ],
      [
       124.90696023,
       11.80509753
      ],
      [
       124.90807042,
       11.80661588
      ],
      [
       124.90958507,
       11.80801796
      ],
      [
       124.9112377,
       11.80943824
      ],
      [
       124.91288957,
       11.81099338
      ],
      [
       124.91524792,
       11.81168012
      ],
      [
       124.91747938,
       11.81186086
      ],
      [
       124.9198213,
       11.81204177
      ],
      [
       124.92208876,
       11.81216862
      ],
      [
       124.92445344,
       11.8124032
      ],
      [
       124.92309604,
       11.81436351
      ],
      [
       124.92167416,
       11.81630689
      ],
      [
       124.92234372,
       11.81807734
      ],
      [
       124.92311522,
       11.82017687
      ],
      [
       124.92390362,
       11.82230882
      ],
      [
       124.92340883,
       11.82369937
      ],
      [
       124.922712,
       11.82562361
      ],
      [
       124.92197793,
       11.82734949
      ],
      [
       124.92016918,
       11.82857943
      ],
      [
       124.91816974,
       11.82985364
      ],
      [
       124.91638105,
       11.83125437
      ],
      [
       124.91447338,
       11.83232046
      ],
      [
       124.91216386,
       11.83208603
      ],
      [
       124.90984256,
       11.8317606
      ],
      [
       124.90712022,
       11.83129982
      ],
      [
       124.90463943,
       11.83095565
      ],
      [
       124.90241928,
       11.83024154
      ],
      [
       124.90020871,
       11.8295277
      ],
      [
       124.89785219,
       11.82885036
      ],
      [
       124.89553031,
       11.82828998
      ],
      [
       124.89621867,
       11.82548712
      ],
      [
       124.89477827,
       11.82433056
      ],
      [
       124.89340905,
       11.82309964
      ],
      [
       124.89181196,
       11.82182485
      ],
      [
       124.89232604,
       11.82007983
      ],
      [
       124.89295584,
       11.81856581
      ],
      [
       124.89337293,
       11.81561108
      ],
      [
       124.89391409,
       11.81304429
      ],
      [
       124.89298764,
       11.81102135
      ],
      [
       124.89161111,
       11.80877778
      ]
     ]
    ]
   }
  }
 ]
}
